NORAD_CAT_ID,OBJECT_NAME,OBJECT_TYPE,EPOCH,MEAN_MOTION,ECCENTRICITY,INCLINATION,RA_OF_ASC_NODE,ARG_OF_PERICENTER,MEAN_ANOMALY,BSTAR,MEAN_MOTION_DOT,MEAN_MOTION_DDOT,TLE_LINE0,TLE_LINE1,TLE_LINE2,SEMIMAJOR_AXIS,PERIOD,APOGEE,PERIGEE,DECAYED
54204.0,STARLINK-5241,PAYLOAD,2023-02-28 19:16:27,15.08822558,0.000102,53.2158,273.7096,105.3711,254.7394,-0.00034455,-5.764e-05,0.0,0 STARLINK-5241,1 54204U 22141AZ  23059.80310087 -.00005764  00000-0 -34455-3 0  9999,2 54204  53.2158 273.7096 0001020 105.3711 254.7394 15.08822558 19431,6917.934,95.439,540.504,539.093,0.0
54204.0,STARLINK-5241,PAYLOAD,2023-02-28 20:51:51,15.08822809,0.0001282,53.2153,273.4125,107.7791,252.3341,-0.00025962,-4.415e-05,0.0,0 STARLINK-5241,1 54204U 22141AZ  23059.86934543 -.00004415  00000-0 -25962-3 0  9999,2 54204  53.2153 273.4125 0001282 107.7791 252.3341 15.08822809 19211,6917.933,95.439,540.685,538.911,0.0
54204.0,STARLINK-5241,PAYLOAD,2023-03-01 20:42:38,15.08836379,0.0001055,53.2156,268.9521,112.3729,247.7375,0.00020041,2.903e-05,0.0,0 STARLINK-5241,1 54204U 22141AZ  23060.86294801  .00002903  00000-0  20041-3 0  9998,2 54204  53.2156 268.9521 0001055 112.3729 247.7375 15.08836379 19597,6917.891,95.438,540.486,539.027,0.0
54204.0,STARLINK-5241,PAYLOAD,2023-03-02 18:58:02,15.08854295,0.0001125,53.2166,264.7893,114.5656,245.5454,0.00049082,7.535e-05,0.0,0 STARLINK-5241,1 54204U 22141AZ  23061.79030730  .00007535  00000-0  49082-3 0  9992,2 54204  53.2166 264.7893 0001125 114.5656 245.5454 15.08854295 19507,6917.837,95.437,540.48,538.923,0.0
54204.0,STARLINK-5241,PAYLOAD,2023-03-03 06:05:44,15.08854498,8.09e-05,53.216,262.7077,119.8012,240.306,0.00033316,5.021e-05,0.0,0 STARLINK-5241,1 54204U 22141AZ  23062.25398289  .00005021  00000-0  33316-3 0  9991,2 54204  53.2160 262.7077 0000809 119.8012 240.3060 15.08854498 19809,6917.836,95.437,540.261,539.141,0.0
54204.0,STARLINK-5241,PAYLOAD,2023-03-03 12:27:16,15.08863702,0.0001571,53.2156,261.5184,99.5006,260.6164,0.00077803,0.00012124,0.0,0 STARLINK-5241,1 54204U 22141AZ  23062.51894278  .00012124  00000-0  77803-3 0  9990,2 54204  53.2156 261.5184 0001571  99.5006 260.6164 15.08863702 19611,6917.808,95.436,540.76,538.586,0.0
54204.0,STARLINK-5241,PAYLOAD,2023-03-03 20:24:12,15.08858124,0.0001389,53.2172,260.033,120.6288,239.4842,0.00054632,8.422e-05,0.0,0 STARLINK-5241,1 54204U 22141AZ  23062.85013928  .00008422  00000-0  54632-3 0  9993,2 54204  53.2172 260.0330 0001389 120.6288 239.4842 15.08858124 19665,6917.825,95.436,540.651,538.729,0.0
54204.0,STARLINK-5241,PAYLOAD,2023-03-04 12:18:03,15.08845537,9.58e-05,53.2159,257.0574,109.4796,250.6299,0.00033852,5.105e-05,0.0,0 STARLINK-5241,1 54204U 22141AZ  23063.51254123  .00005105  00000-0  33852-3 0  9997,2 54204  53.2159 257.0574 0000958 109.4796 250.6299 15.08845537 19762,6917.863,95.437,540.391,539.066,0.0
54204.0,STARLINK-5241,PAYLOAD,2023-03-04 17:04:12,15.08849242,9.28e-05,53.2157,256.1655,107.6229,252.4865,0.00052767,8.122e-05,0.0,0 STARLINK-5241,1 54204U 22141AZ  23063.71126047  .00008122  00000-0  52767-3 0  9990,2 54204  53.2157 256.1655 0000928 107.6229 252.4865 15.08849242 19797,6917.852,95.437,540.359,539.075,0.0
54204.0,STARLINK-5241,PAYLOAD,2023-03-05 12:08:51,15.08837453,0.0001374,53.2152,252.5983,74.4449,285.6694,0.0001803,2.583e-05,0.0,0 STARLINK-5241,1 54204U 22141AZ  23064.50614694  .00002583  00000-0  18030-3 0  9998,2 54204  53.2152 252.5983 0001374  74.4449 285.6694 15.08837453 20147,6917.888,95.438,540.704,538.803,0.0
54204.0,STARLINK-5241,PAYLOAD,2023-03-05 20:05:46,15.08840955,0.0001147,53.2158,251.1112,78.5931,281.519,0.00015565,2.19e-05,0.0,0 STARLINK-5241,1 54204U 22141AZ  23064.83734623  .00002190  00000-0  15565-3 0  9993,2 54204  53.2158 251.1112 0001147  78.5931 281.5190 15.08840955 19966,6917.877,95.437,540.536,538.949,0.0
54204.0,STARLINK-5241,PAYLOAD,2023-03-05 23:16:32,15.08850786,0.0001088,53.216,250.5157,77.7741,282.3373,0.0003301,4.971e-05,0.0,0 STARLINK-5241,1 54204U 22141AZ  23064.96982268  .00004971  00000-0  33010-3 0  9991,2 54204  53.2160 250.5157 0001088  77.7741 282.3373 15.08850786 20210,6917.847,95.437,540.465,538.96,0.0
54204.0,STARLINK-5241,PAYLOAD,2023-03-06 18:21:10,15.08844866,0.0001348,53.2156,246.949,65.6864,294.4269,0.00027564,4.102e-05,0.0,0 STARLINK-5241,1 54204U 22141AZ  23065.76470677  .00004102  00000-0  27564-3 0  9999,2 54204  53.2156 246.9490 0001348  65.6864 294.4269 15.08844866 20338,6917.866,95.437,540.663,538.798,0.0
54204.0,STARLINK-5241,PAYLOAD,2023-03-06 21:31:56,15.08844417,0.000122,53.2158,246.3522,72.1109,288.0016,0.00026754,3.973e-05,0.0,0 STARLINK-5241,1 54204U 22141AZ  23065.89718583  .00003973  00000-0  26754-3 0  9999,2 54204  53.2158 246.3522 0001220  72.1109 288.0016 15.08844417 20122,6917.867,95.437,540.576,538.888,0.0
54204.0,STARLINK-5241,PAYLOAD,2023-03-07 11:50:25,15.08841542,0.0001055,53.216,243.6771,77.0019,283.109,0.00016065,2.27e-05,0.0,0 STARLINK-5241,1 54204U 22141AZ  23066.49334800  .00002270  00000-0  16065-3 0  9995,2 54204  53.2160 243.6771 0001055  77.0019 283.1090 15.08841542 20440,6917.876,95.437,540.471,539.011,0.0
54204.0,STARLINK-5241,PAYLOAD,2023-03-07 18:11:57,15.08852912,0.0001151,53.2169,242.4872,83.8511,276.2612,0.00037666,5.714e-05,0.0,0 STARLINK-5241,1 54204U 22141AZ  23066.75830424  .00005714  00000-0  37666-3 0  9993,2 54204  53.2169 242.4872 0001151  83.8511 276.2612 15.08852912 20252,6917.841,95.437,540.502,538.91,0.0
54204.0,STARLINK-5241,PAYLOAD,2023-03-08 11:41:12,15.08841646,0.000112,53.217,239.2175,64.394,295.7168,0.00018146,2.601e-05,0.0,0 STARLINK-5241,1 54204U 22141AZ  23067.48694867  .00002601  00000-0  18146-3 0  9997,2 54204  53.2170 239.2175 0001120  64.3940 295.7168 15.08841646 20591,6917.875,95.437,540.515,538.966,0.0
54204.0,STARLINK-5241,PAYLOAD,2023-03-08 21:13:31,15.08848115,0.0001204,53.2173,237.431,92.7171,267.3959,0.00036319,5.498e-05,0.0,0 STARLINK-5241,1 54204U 22141AZ  23067.88438764  .00005498  00000-0  36319-3 0  9992,2 54204  53.2173 237.4310 0001204  92.7171 267.3959 15.08848115 20422,6917.856,95.437,540.553,538.888,0.0
54204.0,STARLINK-5241,PAYLOAD,2023-03-09 17:53:31,15.08860422,0.0002562,53.2183,233.5658,94.8936,265.2348,0.00082831,0.00012927,0.0,0 STARLINK-5241,1 54204U 22141AZ  23068.74550554  .00012927  00000-0  82831-3 0  9995,2 54204  53.2183 233.5658 0002562  94.8936 265.2348 15.08860422 20788,6917.818,95.436,541.455,537.911,0.0
54204.0,STARLINK-5241,PAYLOAD,2023-03-10 11:22:46,15.08843093,0.0001186,53.2171,230.294,77.0422,283.0702,0.00029481,4.408e-05,0.0,0 STARLINK-5241,1 54204U 22141AZ  23069.47415054  .00004408  00000-0  29481-3 0  9998,2 54204  53.2171 230.2940 0001186  77.0422 283.0702 15.08843093 20896,6917.871,95.437,540.556,538.915,0.0
54204.0,STARLINK-5241,PAYLOAD,2023-03-10 17:44:19,15.08845333,6.75e-05,53.2173,229.1043,75.1404,284.9663,0.00054503,8.398e-05,0.0,0 STARLINK-5241,1 54204U 22141AZ  23069.73911043  .00008398  00000-0  54503-3 0  9991,2 54204  53.2173 229.1043 0000675  75.1404 284.9663 15.08845333 20705,6917.864,95.437,540.196,539.262,0.0
54204.0,STARLINK-5241,PAYLOAD,2023-03-11 03:16:37,15.08843608,9.9e-05,53.2166,227.3215,96.2206,263.8899,0.00042638,6.505e-05,0.0,0 STARLINK-5241,1 54204U 22141AZ  23070.13654961  .00006505  00000-0  42638-3 0  9994,2 54204  53.2166 227.3215 0000990  96.2206 263.8899 15.08843608 20768,6917.869,95.437,540.419,539.049,0.0
54204.0,STARLINK-5241,PAYLOAD,2023-03-11 14:24:20,15.08835763,0.0001616,53.2182,225.2395,95.6002,264.5175,0.0004881,7.488e-05,0.0,0 STARLINK-5241,1 54204U 22141AZ  23070.60023441  .00007488  00000-0  48810-3 0  9998,2 54204  53.2182 225.2395 0001616  95.6002 264.5175 15.08835763 21067,6917.893,95.438,540.876,538.64,0.0
54204.0,STARLINK-5241,PAYLOAD,2023-03-11 20:45:52,15.08851419,0.0001412,53.2182,224.0494,121.6314,238.4816,0.0006259,9.69e-05,0.0,0 STARLINK-5241,1 54204U 22141AZ  23070.86518771  .00009690  00000-0  62590-3 0  9999,2 54204  53.2182 224.0494 0001412 121.6314 238.4816 15.08851419 20870,6917.845,95.437,540.687,538.734,0.0
54204.0,STARLINK-5241,PAYLOAD,2023-03-11 22:21:15,15.08854002,0.0001396,53.2176,223.7525,126.586,233.5261,0.00066285,0.00010281,0.0,0 STARLINK-5241,1 54204U 22141AZ  23070.93142651  .00010281  00000-0  66285-3 0  9990,2 54204  53.2176 223.7525 0001396 126.5860 233.5261 15.08854002 21114,6917.838,95.437,540.668,538.737,0.0
54204.0,STARLINK-5241,PAYLOAD,2023-03-12 11:04:21,15.0883323,0.0001683,53.2171,221.3737,99.8248,260.2934,-6.0182e-05,-1.246e-05,0.0,0 STARLINK-5241,1 54204U 22141AZ  23071.46135676 -.00001246  00000-0 -60182-4 0  9992,2 54204  53.2171 221.3737 0001683  99.8248 260.2934 15.08833230 21191,6917.901,95.438,540.93,538.602,0.0
54204.0,STARLINK-5241,PAYLOAD,2023-03-12 14:15:07,15.08837885,0.0001342,53.2176,220.7784,104.6321,255.482,1.7096e-05,-1.6e-07,0.0,0 STARLINK-5241,1 54204U 22141AZ  23071.59383528 -.00000016  00000-0  17096-4 0  9996,2 54204  53.2176 220.7784 0001342 104.6321 255.4820 15.08837885 20986,6917.887,95.438,540.68,538.823,0.0
54204.0,STARLINK-5241,PAYLOAD,2023-03-12 17:25:53,15.08842734,0.0001173,53.2182,220.1847,92.3791,267.7335,0.00011364,1.521e-05,0.0,0 STARLINK-5241,1 54204U 22141AZ  23071.72631411  .00001521  00000-0  11364-3 0  9990,2 54204  53.2182 220.1847 0001173  92.3791 267.7335 15.08842734 21238,6917.872,95.437,540.548,538.926,0.0
54204.0,STARLINK-5241,PAYLOAD,2023-03-13 09:19:45,15.08831857,0.00014,53.2192,217.2114,96.3901,263.7251,4.0621e-05,3.58e-06,0.0,0 STARLINK-5241,1 54204U 22141AZ  23072.38872368  .00000358  00000-0  40621-4 0  9997,2 54204  53.2192 217.2114 0001400  96.3901 263.7251 15.08831857 21331,6917.905,95.438,540.739,538.802,0.0
54204.0,STARLINK-5241,PAYLOAD,2023-03-14 09:10:32,15.08843148,0.0001839,53.2176,212.7546,64.0306,296.0876,0.00013993,1.94e-05,0.0,0 STARLINK-5241,1 54204U 22141AZ  23073.38232209  .00001940  00000-0  13993-3 0  9991,2 54204  53.2176 212.7546 0001839  64.0306 296.0876 15.08843148 21483,6917.871,95.437,541.008,538.464,0.0
